NORAD_CAT_ID,OBJECT_NAME,OBJECT_TYPE,EPOCH,MEAN_MOTION,ECCENTRICITY,INCLINATION,RA_OF_ASC_NODE,ARG_OF_PERICENTER,MEAN_ANOMALY,BSTAR,MEAN_MOTION_DOT,MEAN_MOTION_DDOT,TLE_LINE0,TLE_LINE1,TLE_LINE2,SEMIMAJOR_AXIS,PERIOD,APOGEE,PERIGEE,DECAYED
54799.0,STARLINK-5421,PAYLOAD,2024-04-04 20:12:43,15.08847759,0.0001242,53.2167,298.7787,86.4587,273.6547,0.000188,2.706e-05,0.0,0 STARLINK-5421,1 54799U 22175AT  24095.84216479  .00002706  00000-0  18800-3 0  9997,2 54799  53.2167 298.7787 0001242  86.4587 273.6547 15.08847759 71854,6917.857,95.437,540.581,538.862,0.0
54799.0,STARLINK-5421,PAYLOAD,2024-04-05 13:41:57,15.08844337,0.0001297,53.2164,295.5073,90.8368,269.2773,0.000274,4.076e-05,0.0,0 STARLINK-5421,1 54799U 22175AT  24096.57080578  .00004076  00000-0  27400-3 0  9995,2 54799  53.2164 295.5073 0001297  90.8368 269.2773 15.08844337 74124,6917.867,95.437,540.629,538.835,0.0
54799.0,STARLINK-5421,PAYLOAD,2024-04-05 20:03:30,15.08844376,0.0001314,53.216,294.3174,89.7047,270.4096,0.00017938,2.568e-05,0.0,0 STARLINK-5421,1 54799U 22175AT  24096.83576569  .00002568  00000-0  17938-3 0  9993,2 54799  53.2160 294.3174 0001314  89.7047 270.4096 15.08844376 72000,6917.867,95.437,540.641,538.823,0.0
54799.0,STARLINK-5421,PAYLOAD,2024-04-06 11:57:20,15.08850943,0.0001377,53.2166,291.3438,90.1858,269.9292,0.00014629,2.042e-05,0.0,0 STARLINK-5421,1 54799U 22175AT  24097.49815971  .00002042  00000-0  14629-3 0  9990,2 54799  53.2166 291.3438 0001377  90.1858 269.9292 15.08850943 74269,6917.847,95.437,540.665,538.759,0.0
54799.0,STARLINK-5421,PAYLOAD,2024-04-06 19:54:17,15.08838104,0.0001541,53.218,289.8597,96.4782,263.6386,-6.1381e-05,-1.265e-05,0.0,0 STARLINK-5421,1 54799U 22175AT  24097.82936707 -.00001265  00000-0 -61381-4 0  9994,2 54799  53.2180 289.8597 0001541  96.4782 263.6386 15.08838104 72157,6917.886,95.438,540.817,538.685,0.0
54799.0,STARLINK-5421,PAYLOAD,2024-04-07 11:48:08,15.08841099,0.0001738,53.2173,286.8848,91.2246,268.8945,4.9847e-05,5.05e-06,0.0,0 STARLINK-5421,1 54799U 22175AT  24098.49176553  .00000505  00000-0  49847-4 0  9990,2 54799  53.2173 286.8848 0001738  91.2246 268.8945 15.08841099 74417,6917.877,95.437,540.944,538.54,0.0
54799.0,STARLINK-5421,PAYLOAD,2024-04-07 21:20:27,15.08835298,0.0001745,53.2175,285.1004,91.2024,268.9168,-1.234e-05,-4.84e-06,0.0,0 STARLINK-5421,1 54799U 22175AT  24098.88920952 -.00000484  00000-0 -12340-4 0  9999,2 54799  53.2175 285.1004 0001745  91.2024 268.9168 15.08835298 74475,6917.895,95.438,540.967,538.553,0.0
54799.0,STARLINK-5421,PAYLOAD,2024-04-08 00:31:13,15.08840737,0.0001394,53.2167,284.5043,91.0629,269.0523,7.7073e-05,9.39e-06,0.0,0 STARLINK-5421,1 54799U 22175AT  24099.02168817  .00000939  00000-0  77073-4 0  9997,2 54799  53.2167 284.5043 0001394  91.0629 269.0523 15.08840737 72335,6917.878,95.438,540.707,538.779,0.0
54799.0,STARLINK-5421,PAYLOAD,2024-04-08 05:17:23,15.08842042,0.0001506,53.2155,283.6127,85.5001,274.6163,0.00020968,3.051e-05,0.0,0 STARLINK-5421,1 54799U 22175AT  24099.22040671  .00003051  00000-0  20968-3 0  9994,2 54799  53.2155 283.6127 0001506  85.5001 274.6163 15.08842042 74528,6917.874,95.437,540.781,538.697,0.0
54799.0,STARLINK-5421,PAYLOAD,2024-04-08 22:46:37,15.08839389,0.0001653,53.2151,280.3421,83.7443,276.3738,0.00013487,1.859e-05,0.0,0 STARLINK-5421,1 54799U 22175AT  24099.94904988  .00001859  00000-0  13487-3 0  9995,2 54799  53.2151 280.3421 0001653  83.7443 276.3738 15.08839389 74637,6917.882,95.438,540.891,538.604,0.0
54799.0,STARLINK-5421,PAYLOAD,2024-04-09 05:08:10,15.08844768,0.0001528,53.2163,279.1536,89.535,270.5817,0.00011377,1.523e-05,0.0,0 STARLINK-5421,1 54799U 22175AT  24100.21400736  .00001523  00000-0  11377-3 0  9994,2 54799  53.2163 279.1536 0001528  89.5350 270.5817 15.08844768 72511,6917.866,95.437,540.788,538.674,0.0
54799.0,STARLINK-5421,PAYLOAD,2024-04-09 11:29:42,15.08843386,0.0001646,53.216,277.9644,87.1496,272.9685,8.9366e-05,1.135e-05,0.0,0 STARLINK-5421,1 54799U 22175AT  24100.47896882  .00001135  00000-0  89366-4 0  9996,2 54799  53.2160 277.9644 0001646  87.1496 272.9685 15.08843386 74718,6917.87,95.437,540.874,538.596,0.0
54799.0,STARLINK-5421,PAYLOAD,2024-04-09 21:02:02,15.08833196,0.0001218,53.216,276.1799,81.8661,278.2469,0.00010486,1.381e-05,0.0,0 STARLINK-5421,1 54799U 22175AT  24100.87641601  .00001381  00000-0  10486-3 0  9996,2 54799  53.2160 276.1799 0001218  81.8661 278.2469 15.08833196 72614,6917.901,95.438,540.609,538.924,0.0
54799.0,STARLINK-5421,PAYLOAD,2024-04-10 04:58:57,15.0884658,0.0001453,53.2164,274.6914,87.8025,272.3134,9.9825e-05,1.301e-05,0.0,0 STARLINK-5421,1 54799U 22175AT  24101.20760751  .00001301  00000-0  99825-4 0  9999,2 54799  53.2164 274.6914 0001453  87.8025 272.3134 15.08846580 72661,6917.86,95.437,540.73,538.72,0.0
54799.0,STARLINK-5421,PAYLOAD,2024-04-10 11:20:30,15.08844509,0.0001743,53.2157,273.5006,84.5886,275.5305,6.4609e-05,7.4e-06,0.0,0 STARLINK-5421,1 54799U 22175AT  24101.47256958  .00000740  00000-0  64609-4 0  9995,2 54799  53.2157 273.5006 0001743  84.5886 275.5305 15.08844509 74862,6917.867,95.437,540.937,538.526,0.0
54799.0,STARLINK-5421,PAYLOAD,2024-04-10 17:42:02,15.08842291,0.0001686,53.2162,272.3129,81.83,278.2884,0.00010288,1.35e-05,0.0,0 STARLINK-5421,1 54799U 22175AT  24101.73752997  .00001350  00000-0  10288-3 0  9999,2 54799  53.2162 272.3129 0001686  81.8300 278.2884 15.08842291 72741,6917.873,95.437,540.905,538.572,0.0
54799.0,STARLINK-5421,PAYLOAD,2024-04-11 14:22:03,15.088335,0.0001384,53.2162,268.4456,93.3826,266.7325,6.5186e-05,7.49e-06,0.0,0 STARLINK-5421,1 54799U 22175AT  24102.59865599  .00000749  00000-0  65186-4 0  9996,2 54799  53.2162 268.4456 0001384  93.3826 266.7325 15.08833500 75036,6917.9,95.438,540.723,538.808,0.0
54799.0,STARLINK-5421,PAYLOAD,2024-04-11 17:32:49,15.08838044,0.0001524,53.2172,267.8517,92.3185,267.7981,0.00010714,1.417e-05,0.0,0 STARLINK-5421,1 54799U 22175AT  24102.73113369  .00001417  00000-0  10714-3 0  9992,2 54799  53.2172 267.8517 0001524  92.3185 267.7981 15.08838044 72899,6917.886,95.438,540.806,538.697,0.0
54799.0,STARLINK-5421,PAYLOAD,2024-04-12 14:12:50,15.08840876,0.0001396,53.2168,263.9852,89.2963,270.8189,0.00011799,1.59e-05,0.0,0 STARLINK-5421,1 54799U 22175AT  24103.59225208  .00001590  00000-0  11799-3 0  9999,2 54799  53.2168 263.9852 0001396  89.2963 270.8189 15.08840876 75185,6917.878,95.437,540.708,538.777,0.0
54799.0,STARLINK-5421,PAYLOAD,2024-04-13 10:52:51,15.0883984,0.0001401,53.2173,260.1193,92.2795,267.8357,0.00016129,2.28e-05,0.0,0 STARLINK-5421,1 54799U 22175AT  24104.45337316  .00002280  00000-0  16129-3 0  9998,2 54799  53.2173 260.1193 0001401  92.2795 267.8357 15.08839840 73159,6917.881,95.438,540.715,538.777,0.0
54799.0,STARLINK-5421,PAYLOAD,2024-04-13 14:03:37,15.08837623,0.0001402,53.2174,259.5242,92.9775,267.1377,0.00011613,1.561e-05,0.0,0 STARLINK-5421,1 54799U 22175AT  24104.58585440  .00001561  00000-0  11613-3 0  9999,2 54799  53.2174 259.5242 0001402  92.9775 267.1377 15.08837623 75337,6917.888,95.438,540.723,538.783,0.0
54799.0,STARLINK-5421,PAYLOAD,2024-04-13 17:14:23,15.08839527,0.0001267,53.2166,258.9282,89.0987,271.0151,8.3228e-05,1.037e-05,0.0,0 STARLINK-5421,1 54799U 22175AT  24104.71833323  .00001037  00000-0  83228-4 0  9990,2 54799  53.2166 258.9282 0001267  89.0987 271.0151 15.08839527 75357,6917.882,95.438,540.623,538.87,0.0
54799.0,STARLINK-5421,PAYLOAD,2024-04-14 15:29:48,15.08838716,0.0001268,53.2162,254.764,84.4147,275.6989,5.6964e-05,6.19e-06,0.0,0 STARLINK-5421,1 54799U 22175AT  24105.64569445  .00000619  00000-0  56964-4 0  9996,2 54799  53.2162 254.7640 0001268  84.4147 275.6989 15.08838716 73337,6917.884,95.438,540.627,538.872,0.0
54799.0,STARLINK-5421,PAYLOAD,2024-04-15 13:45:12,15.08838751,0.0001302,53.2165,250.6028,88.3147,271.7994,7.9885e-05,9.84e-06,0.0,0 STARLINK-5421,1 54799U 22175AT  24106.57305558  .00000984  00000-0  79885-4 0  9994,2 54799  53.2165 250.6028 0001302  88.3147 271.7994 15.08838751 75634,6917.884,95.438,540.65,538.848,0.0
54799.0,STARLINK-5421,PAYLOAD,2024-04-16 08:49:49,15.08839337,0.000141,53.2168,247.0365,75.3668,284.748,0.0001166,1.568e-05,0.0,0 STARLINK-5421,1 54799U 22175AT  24107.36793743  .00001568  00000-0  11660-3 0  9994,2 54799  53.2168 247.0365 0001410  75.3668 284.7480 15.08839337 73593,6917.882,95.438,540.723,538.772,0.0
54799.0,STARLINK-5421,PAYLOAD,2024-04-16 13:35:59,15.08839586,0.0001433,53.2169,246.1443,75.4456,284.6695,0.00011485,1.54e-05,0.0,0 STARLINK-5421,1 54799U 22175AT  24107.56665795  .00001540  00000-0  11485-3 0  9996,2 54799  53.2169 246.1443 0001433  75.4456 284.6695 15.08839586 75788,6917.882,95.438,540.738,538.755,0.0
54799.0,STARLINK-5421,PAYLOAD,2024-04-16 16:46:44,15.08855015,0.000133,53.2164,245.5468,68.9216,291.1918,0.00033485,5.047e-05,0.0,0 STARLINK-5421,1 54799U 22175AT  24107.69912999  .00005047  00000-0  33485-3 0  9991,2 54799  53.2164 245.5468 0001330  68.9216 291.1918 15.08855015 73649,6917.834,95.437,540.62,538.779,0.0
54799.0,STARLINK-5421,PAYLOAD,2024-04-17 08:40:36,15.08843121,0.0001489,53.2177,242.5766,72.8057,287.3098,0.00013554,1.87e-05,0.0,0 STARLINK-5421,1 54799U 22175AT  24108.36153653  .00001870  00000-0  13554-3 0  9995,2 54799  53.2177 242.5766 0001489  72.8057 287.3098 15.08843121 73745,6917.871,95.437,540.766,538.706,0.0
54799.0,STARLINK-5421,PAYLOAD,2024-04-17 13:26:46,15.08835049,0.0001195,53.217,241.6828,60.7522,299.359,2.6208e-05,1.29e-06,0.0,0 STARLINK-5421,1 54799U 22175AT  24108.56026145  .00000129  00000-0  26208-4 0  9999,2 54799  53.2170 241.6828 0001195  60.7522 299.3590 15.08835049 75937,6917.896,95.438,540.587,538.934,0.0
54799.0,STARLINK-5421,PAYLOAD,2024-04-17 15:02:09,15.08837111,0.000141,53.2167,241.3859,77.4498,282.6651,5.1463e-05,5.31e-06,0.0,0 STARLINK-5421,1 54799U 22175AT  24108.62650070  .00000531  00000-0  51463-4 0  9994,2 54799  53.2167 241.3859 0001410  77.4498 282.6651 15.08837111 73787,6917.889,95.438,540.73,538.779,0.0
